NANOSATC-BR1            
1 40024U 14033Q   26068.98267556  .00020336  00000+0  74295-3 0  9994
2 40024  98.0845  92.7804 0004644 147.6715 212.4808 15.28136801638811
STARLINK-31892          
1 59853U 24097U   26068.55491966 -.00000933  00000+0 -24376-4 0  9991
2 59853  43.0015 275.3387 0001318 275.6883  84.3818 15.27575099101893
